     2.100          NAVIGATION                              RINEX VERSION / TYPE
fic2rin                                 11/20/2010 00:09:27 PGM / RUN BY / DATE
                                                            END OF HEADER
14 10 11 19 20  0  0.0  .108629930764D-03  .329691829393D-11  .000000000000D+00
     .590000000000D+02 -.396250000000D+02  .432303721471D-08 -.948661262018D+00
    -.206939876080D-05  .575693370774D-02  .172667205334D-05  .515359375191D+04
     .504000000000D+06  .186264514923D-07 -.162133377396D+01  .104308128357D-06
     .984326603531D+00  .359656250000D+03 -.209078378330D+01 -.828248785601D-08
    -.243224416988D-09  .100000000000D+01  .161000000000D+04  .000000000000D+00
     .240000000000D+01  .000000000000D+00 -.884756445885D-08  .590000000000D+02
     .496806000000D+06  .400000000000D+01
15 10 11 19 20  0  0.0 -.181375071406D-03  .443378667114D-11  .000000000000D+00
     .260000000000D+02 -.242812500000D+02  .495127766916D-08 -.115933874835D+01
    -.123493373394D-05  .302860978991D-02  .931322574615D-06  .515385043526D+04
     .504000000000D+06 -.130385160446D-07 -.169109402760D+01 -.540167093277D-07
     .951741738858D+00  .358093750000D+03 -.197598599323D+00 -.855892794227D-08
    -.111790370803D-09  .100000000000D+01  .161000000000D+04  .000000000000D+00
     .240000000000D+01  .000000000000D+00 -.977888703346D-08  .260000000000D+02
     .496806000000D+06  .400000000000D+01
16 10 11 19 20  0  0.0 -.127499923110D-03 -.318323145621D-11  .000000000000D+00
     .280000000000D+02  .110312500000D+02  .416588781166D-08  .612530461918D+00
     .622123479843D-06  .588619837072D-02  .907294452190D-05  .515369372559D+04
     .504000000000D+06  .145286321640D-06  .451347980981D+00  .223517417908D-07
     .974187908300D+00  .209843750000D+03 -.161485481993D+00 -.782104006343D-08
     .630740558590D-09  .100000000000D+01  .161000000000D+04  .000000000000D+00
     .240000000000D+01  .000000000000D+00 -.977888703346D-08  .280000000000D+02
     .496806000000D+06  .400000000000D+01
17 10 11 19 20  0  0.0  .177691224962D-03  .102318153949D-11  .000000000000D+00
     .730000000000D+02 -.121250000000D+02  .508842623909D-08 -.420064054245D+00
    -.510364770889D-06  .574567948934D-02  .509619712830D-05  .515367079735D+04
     .504000000000D+06  .372529029846D-07  .149434755465D+01  .800937414169D-07
     .960129401609D+00  .281781250000D+03 -.250707380733D+01 -.830498879326D-08
    -.910752222200D-10  .100000000000D+01  .161000000000D+04  .000000000000D+00
     .240000000000D+01  .000000000000D+00 -.102445483208D-07  .730000000000D+02
     .496806000000D+06  .400000000000D+01
18 10 11 19 20  0  0.0  .105627346784D-03  .216004991671D-11  .000000000000D+00
     .420000000000D+02  .118937500000D+03  .514950021164D-08  .905050914821D+00
     .631809234619D-05  .118318313034D-01  .660121440887D-05  .515375135231D+04
     .504000000000D+06 -.931322574615D-07 -.270148130688D+01  .141561031342D-06
     .935567333289D+00  .240187500000D+03 -.228231988333D+01 -.862571643857D-08
     .414302971667D-10  .100000000000D+01  .161000000000D+04  .000000000000D+00
     .240000000000D+01  .000000000000D+00 -.107102096081D-07  .420000000000D+02
     .496806000000D+06  .400000000000D+01
19 10 11 19 20  0  0.0 -.846441835165D-04 -.341060513165D-11  .000000000000D+00
     .160000000000D+02 -.154062500000D+02  .503806699857D-08 -.126300254394D+01
    -.104121863842D-05  .675248447806D-02  .530853867531D-05  .515358083344D+04
     .504000000000D+06  .745058059692D-08  .154893638374D+01 -.106170773506D-06
     .957695037168D+00  .273781250000D+03 -.251214223624D-01 -.823712882376D-08
    -.835749098019D-10  .100000000000D+01  .161000000000D+04  .000000000000D+00
     .240000000000D+01  .000000000000D+00 -.149011611938D-07  .160000000000D+02
     .496806000000D+06  .400000000000D+01
20 10 11 19 20  0  0.0  .494793057442D-04 -.227373675443D-12  .000000000000D+00
     .200000000000D+02  .137437500000D+03  .505913930489D-08  .128180398318D+01
     .704824924469D-05  .440010183956D-02  .708177685738D-05  .515379712486D+04
     .504000000000D+06 -.109896063805D-06 -.275541003515D+01 -.242143869400D-07
     .935611304218D+00  .228468750000D+03  .126213456246D+01 -.844213736319D-08
     .214294640518D-09  .100000000000D+01  .161000000000D+04  .000000000000D+00
     .240000000000D+01  .000000000000D+00 -.791624188423D-08  .200000000000D+02
     .496806000000D+06  .400000000000D+01
21 10 11 19 20  0  0.0 -.103532802314D-03 -.272848410532D-11  .000000000000D+00
     .310000000000D+02  .834375000000D+01  .503485257896D-08  .211692785415D+01
     .385567545891D-06  .169726567110D-01  .108573585749D-04  .515362062073D+04
     .504000000000D+06 -.361353158951D-06  .252656014825D+01 -.223517417908D-06
     .932219974841D+00  .159062500000D+03 -.243297231211D+01 -.808783689087D-08
    -.383230248792D-09  .100000000000D+01  .161000000000D+04  .000000000000D+00
     .240000000000D+01  .000000000000D+00 -.116415321827D-07  .310000000000D+02
     .496806000000D+06  .400000000000D+01
22 10 11 19 20  0  0.0  .158600043505D-03 -.795807864051D-12  .000000000000D+00
     .103000000000D+03  .118843750000D+03  .524664711534D-08  .189977906485D-01
     .625848770142D-05  .549462367781D-02  .598281621933D-05  .515372553825D+04
     .504000000000D+06 -.186264514923D-07 -.269694612185D+01  .372529029846D-07
     .933256826807D+00  .249656250000D+03 -.192927124025D+01 -.859035782288D-08
     .140362989539D-09  .100000000000D+01  .161000000000D+04  .000000000000D+00
     .340000000000D+01  .000000000000D+00 -.176951289177D-07  .103000000000D+03
     .496806000000D+06  .400000000000D+01
23 10 11 19 20  0  0.0  .342668499798D-03 -.204636307899D-11  .000000000000D+00
     .640000000000D+02 -.348437500000D+02  .469769567788D-08 -.171812147861D+01
    -.189058482647D-05  .695421453565D-02  .815838575363D-06  .515361962509D+04
     .504000000000D+06 -.353902578354D-07 -.166345883067D+01 -.596046447754D-07
     .966085932968D+00  .366781250000D+03  .313113414691D+01 -.846749556232D-08
    -.101432796512D-09  .100000000000D+01  .161000000000D+04  .000000000000D+00
     .240000000000D+01  .000000000000D+00 -.200234353542D-07  .640000000000D+02
     .496806000000D+06  .400000000000D+01
24 10 11 19 20  0  0.0  .340330880135D-03  .341060513165D-11  .000000000000D+00
     .118000000000D+03  .351562500000D+02  .458519099161D-08 -.202972069468D+01
     .168941915035D-05  .578777841292D-02  .117849558592D-04  .515474872589D+04
     .504000000000D+06 -.134110450745D-06  .256814592216D+01 -.126659870148D-06
     .948875421521D+00  .147406250000D+03 -.310005614052D+00 -.792568727955D-08
    -.406088343781D-09  .100000000000D+01  .161000000000D+04  .000000000000D+00
     .240000000000D+01  .000000000000D+00 -.139698386192D-08  .118000000000D+03
     .496806000000D+06  .400000000000D+01
25 10 11 19 20  0  0.0 -.526905059814D-04 -.238742359215D-11  .000000000000D+00
     .560000000000D+02  .137812500000D+02  .440661212451D-08  .197966720714D+00
     .575557351112D-06  .616845791228D-03  .918284058571D-05  .515374125099D+04
     .504000000000D+06 -.130385160446D-07  .406109410350D+00 -.130385160446D-07
     .961830446179D+00  .200468750000D+03  .189280398848D+01 -.790747223510D-08
     .586095841816D-09  .100000000000D+01  .161000000000D+04  .000000000000D+00
     .240000000000D+01  .000000000000D+00  .465661287308D-08  .560000000000D+02
     .496806000000D+06  .400000000000D+01
26 10 11 19 20  0  0.0 -.542774796486D-04 -.818545231596D-11  .000000000000D+00
     .520000000000D+02 -.440312500000D+02  .399980946526D-08 -.198502827818D+01
    -.210292637348D-05  .199040921871D-01  .966712832451D-06  .515363973999D+04
     .504000000000D+06  .325962901115D-06 -.160246054933D+01 -.856816768646D-07
     .988855515561D+00  .372406250000D+03  .111578262274D+01 -.784425531615D-08
    -.903609067516D-10  .100000000000D+01  .161000000000D+04  .000000000000D+00
     .240000000000D+01  .000000000000D+00 -.605359673500D-08  .520000000000D+02
     .496806000000D+06  .400000000000D+01
27 10 11 19 20  0  0.0  .209305435419D-03  .363797880709D-11  .000000000000D+00
     .148000000000D+03 -.998750000000D+02  .384230290448D-08 -.843710650038D+00
    -.517442822456D-05  .217012963258D-01  .939145684242D-05  .515376796150D+04
     .504000000000D+06 -.329688191414D-06 -.675331593769D+00  .128522515297D-06
     .979945109756D+00  .214750000000D+03 -.134806997653D+01 -.807033616189D-08
     .607168148133D-11  .100000000000D+01  .161000000000D+04  .000000000000D+00
     .340000000000D+01  .000000000000D+00 -.419095158577D-08  .148000000000D+03
     .496806000000D+06  .400000000000D+01
28 10 11 19 20  0  0.0  .549759715796D-05  .170530256582D-11  .000000000000D+00
     .460000000000D+02  .116250000000D+02  .430517932800D-08  .171540581697D+00
     .668689608574D-06  .164427317213D-01  .924058258533D-05  .515368127823D+04
     .504000000000D+06 -.229105353355D-06  .458831665689D+00  .152736902237D-06
     .972445732325D+00  .211687500000D+03 -.193813384228D+01 -.804676375144D-08
     .579667002600D-09  .100000000000D+01  .161000000000D+04  .000000000000D+00
     .240000000000D+01  .000000000000D+00 -.107102096081D-07  .460000000000D+02
     .496806000000D+06  .400000000000D+01
29 10 11 19 20  0  0.0  .164784491062D-03  .261479726760D-11  .000000000000D+00
     .210000000000D+02 -.138750000000D+02  .497127850228D-08  .224542720182D+01
    -.823289155960D-06  .251330935862D-02  .532343983650D-05  .515361972427D+04
     .504000000000D+06  .428408384323D-07  .150267338570D+01 -.931322574615D-08
     .960514517719D+00  .280625000000D+03 -.125409660881D+01 -.815533970263D-08
    -.111790370803D-09  .100000000000D+01  .161000000000D+04  .000000000000D+00
     .240000000000D+01  .000000000000D+00 -.838190317154D-08  .210000000000D+02
     .496806000000D+06  .400000000000D+01
